NORAD_CAT_ID,OBJECT_NAME,OBJECT_TYPE,EPOCH,MEAN_MOTION,ECCENTRICITY,INCLINATION,RA_OF_ASC_NODE,ARG_OF_PERICENTER,MEAN_ANOMALY,BSTAR,MEAN_MOTION_DOT,MEAN_MOTION_DDOT,TLE_LINE0,TLE_LINE1,TLE_LINE2,SEMIMAJOR_AXIS,PERIOD,APOGEE,PERIGEE,DECAYED
51127.0,STARLINK-3370,PAYLOAD,2022-02-14 14:00:01,15.732282500000002,0.0002754,53.2176,143.1371,18.2041,35.3481,-0.00049841,-0.0007009,0.0,0 STARLINK-3370,1 51127U 22005Z   22045.58334491 -.00070090  00000-0 -49841-3 0  9992,2 51127  53.2176 143.1371 0002754  18.2041  35.3481 15.73228250  3727,6727.815,91.532,351.532,347.827,0.0
51127.0,STARLINK-3370,PAYLOAD,2022-02-14 20:00:01,15.73179698,0.0002796,53.2171,141.8997,16.4126,13.8391,0.00022335,0.00030816,0.0,0 STARLINK-3370,1 51127U 22005Z   22045.83334491  .00030816  00000-0  22335-3 0  9999,2 51127  53.2171 141.8997 0002796  16.4126  13.8391 15.73179698  3701,6727.953,91.534,351.699,347.93699999999984,0.0
51127.0,STARLINK-3370,PAYLOAD,2022-02-15 14:00:01,15.73187563,0.0002832,53.2178,138.1889,15.7911,304.5735,0.00017755,0.00024359,0.0,0 STARLINK-3370,1 51127U 22005Z   22046.58334491  .00024359  00000-0  17755-3 0  9997,2 51127  53.2178 138.1889 0002832  15.7911 304.5735 15.73187563  3681,6727.931,91.534,351.701,347.89,0.0
51127.0,STARLINK-3370,PAYLOAD,2022-02-15 22:00:01,15.73252765,0.0002784,53.2177,136.5385,11.3843,37.9609,-0.00063545,-0.00089086,0.0,0 STARLINK-3370,1 51127U 22005Z   22046.91668981 -.00089086  00000-0 -63545-3 0  9996,2 51127  53.2177 136.5385 0002784  11.3843  37.9609 15.73252765  5704,6727.745,91.53,351.483,347.737,0.0
51127.0,STARLINK-3370,PAYLOAD,2022-02-16 04:00:00,15.7316773,0.0002644,53.2177,135.3003,11.8456,14.1664,0.00044229,0.00061831,0.0,0 STARLINK-3370,1 51127U 22005Z   22047.16667824  .00061831  00000-0  44229-3 0  9993,2 51127  53.2177 135.3003 0002644  11.8456  14.1664 15.73167730  5747,6727.986999999999,91.535,351.631,348.0730000000001,0.0
51127.0,STARLINK-3370,PAYLOAD,2022-02-16 14:00:01,15.73193566,0.0002994,53.2175,133.2411,11.9226,215.2294,0.00035768,0.00049869,0.0,0 STARLINK-3370,1 51127U 22005Z   22047.58334491  .00049869  00000-0  35768-3 0  9995,2 51127  53.2175 133.2411 0002994  11.9226 215.2294 15.73193566  5816,6727.9140000000025,91.534,351.793,347.764,0.0
51127.0,STARLINK-3370,PAYLOAD,2022-02-16 22:00:00,15.73274163,0.0002851,53.217,131.5903,10.341,305.7543,-0.00040566,-0.00057361,0.0,0 STARLINK-3370,1 51127U 22005Z   22047.91667824 -.00057361  00000-0 -40566-3 0  9991,2 51127  53.2170 131.5903 0002851  10.3410 305.7543 15.73274163  3710,6727.684,91.529,351.467,347.631,0.0
51127.0,STARLINK-3370,PAYLOAD,2022-02-17 14:00:01,15.73229551,0.0003118,53.2173,128.2925,12.1028,121.9583,-0.00025118,-0.00035779,0.0,0 STARLINK-3370,1 51127U 22005Z   22048.58334491 -.00035779  00000-0 -25118-3 0  9991,2 51127  53.2173 128.2925 0003118  12.1028 121.9583 15.73229551  5964,6727.811,91.531,351.774,347.57800000000015,0.0
51127.0,STARLINK-3370,PAYLOAD,2022-02-17 22:00:00,15.73235587,0.0003017,53.2172,126.6416,13.9026,209.0979,-0.0003513,-0.00049723,0.0,0 STARLINK-3370,1 51127U 22005Z   22048.91667824 -.00049723  00000-0 -35130-3 0  9996,2 51127  53.2172 126.6416 0003017  13.9026 209.0979 15.73235587  3674,6727.794,91.531,351.68800000000016,347.629,0.0
51127.0,STARLINK-3370,PAYLOAD,2022-02-18 14:00:01,15.73112841,0.0003309,53.2167,123.3443,17.6038,23.2606,0.00043502,0.00060658,0.0,0 STARLINK-3370,1 51127U 22005Z   22049.58334491  .00060658  00000-0  43502-3 0  9991,2 51127  53.2167 123.3443 0003309  17.6038  23.2606 15.73112841  3715,6728.144,91.538,352.235,347.782,0.0
51127.0,STARLINK-3370,PAYLOAD,2022-02-18 20:00:01,15.72724808,0.0003071,53.2168,122.0921,12.2534,5.4066,0.0045008,0.00670377,0.0,0 STARLINK-3370,1 51127U 22005Z   22049.83334491  .00670377  00000-0  45008-2 0  9996,2 51127  53.2168 122.0921 0003071  12.2534   5.4066 15.72724808  6166,6729.25,91.561,353.182,349.0490000000001,0.0
51127.0,STARLINK-3370,PAYLOAD,2022-02-19 04:00:00,15.73171499,0.0002945,53.2163,120.4551,11.5943,94.9356,0.00047498,0.00066497,0.0,0 STARLINK-3370,1 51127U 22005Z   22050.16667824  .00066497  00000-0  47498-3 0  9991,2 51127  53.2163 120.4551 0002945  11.5943  94.9356 15.73171499  6211,6727.976,91.535,351.8230000000001,347.86,0.0
51127.0,STARLINK-3370,PAYLOAD,2022-02-19 14:00:01,15.73227718,0.0003299,53.2165,118.3956,9.5587,298.1379,-0.00013483,-0.0001953,0.0,0 STARLINK-3370,1 51127U 22005Z   22050.58334491 -.00019530  00000-0 -13483-3 0  9993,2 51127  53.2165 118.3956 0003299   9.5587 298.1379 15.73227718  3690,6727.816,91.532,351.901,347.462,0.0
51127.0,STARLINK-3370,PAYLOAD,2022-02-19 20:00:01,15.7322103,0.000324,53.2163,117.157,8.5925,275.8343,-0.00013191,-0.00019116,0.0,0 STARLINK-3370,1 51127U 22005Z   22050.83334491 -.00019116  00000-0 -13191-3 0  9997,2 51127  53.2163 117.1570 0003240   8.5925 275.8343 15.73221030  6325,6727.835,91.532,351.88,347.52,0.0
51127.0,STARLINK-3370,PAYLOAD,2022-02-20 14:00:01,15.73202807,0.0003478,53.2158,113.4468,13.3832,201.1775,-4.1118e-05,-6.393e-05,0.0,0 STARLINK-3370,1 51127U 22005Z   22051.58334491 -.00006393  00000-0 -41118-4 0  9994,2 51127  53.2158 113.4468 0003478  13.3832 201.1775 15.73202807  3664,6727.887,91.533,352.092,347.412,0.0
51127.0,STARLINK-3370,PAYLOAD,2022-02-20 22:00:00,15.73168442,0.0003273999999999,53.2156,111.7954,13.1326,290.367,0.0002198,0.00030302,0.0,0 STARLINK-3370,1 51127U 22005Z   22051.91667824  .00030302  00000-0  21980-3 0  9999,2 51127  53.2156 111.7954 0003274  13.1326 290.3670 15.73168442  6497,6727.985,91.535,352.05300000000005,347.647,0.0
51127.0,STARLINK-3370,PAYLOAD,2022-02-21 06:00:00,15.73192746,0.0003289,53.2158,110.1459,16.3379,16.046,-0.0003816,-0.00053837,0.0,0 STARLINK-3370,1 51127U 22005Z   22052.25001157 -.00053837  00000-0 -38160-3 0  9996,2 51127  53.2158 110.1459 0003289  16.3379  16.0460 15.73192746  6541,6727.916,91.534,351.994,347.5680000000001,0.0
51127.0,STARLINK-3370,PAYLOAD,2022-02-21 20:00:01,15.73192085,0.000351,53.2159,107.2596,17.6647,80.3339,4.881e-05,6.231e-05,0.0,0 STARLINK-3370,1 51127U 22005Z   22052.83335648  .00006231  00000-0  48810-4 0  9993,2 51127  53.2159 107.2596 0003510  17.6647  80.3339 15.73192085  6635,6727.918000000002,91.534,352.144,347.421,0.0
51127.0,STARLINK-3370,PAYLOAD,2022-02-21 22:00:00,15.73177668,0.0003462,53.2161,106.8467,17.942,192.2251,0.00034215,0.00047635,0.0,0 STARLINK-3370,1 51127U 22005Z   22052.91667824  .00047635  00000-0  34215-3 0  9992,2 51127  53.2161 106.8467 0003462  17.9420 192.2251 15.73177668  3697,6727.959,91.534,352.153,347.495,0.0
51127.0,STARLINK-3370,PAYLOAD,2022-02-22 14:00:01,15.73160076,0.0003707,53.2156,103.5496,16.9726,11.0708,0.00064194,0.00090314,0.0,0 STARLINK-3370,1 51127U 22005Z   22053.58334491  .00090314  00000-0  64194-3 0  9998,2 51127  53.2156 103.5496 0003707  16.9726  11.0708 15.73160076  3686,6728.009,91.536,352.36800000000005,347.38,0.0
51127.0,STARLINK-3370,PAYLOAD,2022-02-22 22:00:00,15.73213577,0.0003419,53.2156,101.8981,17.4469,99.5276,0.00035473,0.00049497,0.0,0 STARLINK-3370,1 51127U 22005Z   22053.91667824  .00049497  00000-0  35473-3 0  9998,2 51127  53.2156 101.8981 0003419  17.4469  99.5276 15.73213577  6809,6727.856,91.532,352.022,347.421,0.0
51127.0,STARLINK-3370,PAYLOAD,2022-02-23 14:00:01,15.73226695,0.0003609,53.2161,98.6009,11.246,283.6472,-0.00043731,-0.00061644,0.0,0 STARLINK-3370,1 51127U 22005Z   22054.58334491 -.00061644  00000-0 -43731-3 0  9999,2 51127  53.2161  98.6009 0003609  11.2460 283.6472 15.73226695  6914,6727.819,91.532,352.112,347.256,0.0
51127.0,STARLINK-3370,PAYLOAD,2022-02-23 22:00:00,15.73129509,0.0003368,53.2163,96.9493,9.2705,14.571,0.0001250999999999,0.00016921,0.0,0 STARLINK-3370,1 51127U 22005Z   22054.91667824  .00016921  00000-0  12510-3 0  9992,2 51127  53.2163  96.9493 0003368   9.2705  14.5710 15.73129509  3712,6728.096,91.537,352.227,347.695,0.0
51127.0,STARLINK-3370,PAYLOAD,2022-02-24 06:00:00,15.73491906,0.0003576,53.2169,95.2913,14.9341,97.7624,-0.0053962,-0.00706876,0.0,0 STARLINK-3370,1 51127U 22005Z   22055.25001157 -.00706876  00000-0 -53962-2 0  9993,2 51127  53.2169  95.2913 0003576  14.9341  97.7624 15.73491906  7014,6727.063,91.516,351.334,346.522,0.0
51127.0,STARLINK-3370,PAYLOAD,2022-02-24 14:00:01,15.73160976,0.000371,53.2158,93.6524,11.0751,190.6194,0.0006051,0.00085045,0.0,0 STARLINK-3370,1 51127U 22005Z   22055.58334491  .00085045  00000-0  60510-3 0  9993,2 51127  53.2158  93.6524 0003710  11.0751 190.6194 15.73160976  3689,6728.005999999999,91.535,352.36800000000005,347.375,0.0
51127.0,STARLINK-3370,PAYLOAD,2022-02-24 22:00:00,15.7320173,0.0003428,53.2158,92.0009,11.2697,279.3471,0.00032021,0.0004457,0.0,0 STARLINK-3370,1 51127U 22005Z   22055.91667824  .00044570  00000-0  32021-3 0  9993,2 51127  53.2158  92.0009 0003428  11.2697 279.3471 15.73201730  3684,6727.89,91.533,352.06199999999984,347.449,0.0
51127.0,STARLINK-3370,PAYLOAD,2022-02-25 00:00:00,15.73222193,0.0003392,53.2159,91.5882,11.4122,31.437,4.0098e-05,5.014e-05,0.0,0 STARLINK-3370,1 51127U 22005Z   22056.00001157  .00005014  00000-0  40098-4 0  9999,2 51127  53.2159  91.5882 0003392  11.4122  31.4370 15.73222193  7138,6727.831999999999,91.532,351.97900000000016,347.415,0.0
51127.0,STARLINK-3370,PAYLOAD,2022-02-25 14:00:01,15.73176649,0.0003681,53.2162,88.704,6.7991,101.7058,-1.6804e-05,-2.98e-05,0.0,0 STARLINK-3370,1 51127U 22005Z   22056.58334491 -.00002980  00000-0 -16804-4 0  9991,2 51127  53.2162  88.7040 0003681   6.7991 101.7058 15.73176649  7226,6727.962,91.535,352.30300000000005,347.35,0.0
51127.0,STARLINK-3370,PAYLOAD,2022-02-25 22:00:00,15.73151521,0.000348,53.2164,87.0524,7.0518,190.368,0.00061488,0.00086405,0.0,0 STARLINK-3370,1 51127U 22005Z   22056.91667824  .00086405  00000-0  61488-3 0  9996,2 51127  53.2164  87.0524 0003480   7.0518 190.3680 15.73151521  3697,6728.033,91.536,352.24,347.557,0.0
